[
    {
        "Altitude(m)": 554242.2072028586,
        "Argument of Periapsis(deg)": 0.0,
        "Eccentricity": 0.0,
        "Inclination(deg)": 53.0,
        "Latitude(deg)": -0.07941418812554278,
        "Longitude(deg)": -125.02873372759116,
        "Mean Anomaly(deg)": 0.0,
        "RAAN(deg)": 335.0,
        "Satellite Name": "Starlink Shell 1 1474",
        "Satellite Number": 1474,
        "Semi-Major Axis(m)": 6931778.249405717,
        "Time(s)": 0
    },
    {
        "Altitude(m)": 554177.7909401822,
        "Argument of Periapsis(deg)": 0.00034857847951123687,
        "Eccentricity": 0.0,
        "Inclination(deg)": 53.0,
        "Latitude(deg)": 0.4245282467619692,
        "Longitude(deg)": -124.69335625745029,
        "Mean Anomaly(deg)": 0.6268312035567466,
        "RAAN(deg)": 334.99948122992254,
        "Satellite Name": "Starlink Shell 1 1474",
        "Satellite Number": 1474,
        "Semi-Major Axis(m)": 6931778.249405717,
        "Time(s)": 10
    },
    {
        "Altitude(m)": 554116.1787768,
        "Argument of Periapsis(deg)": 0.0006971569590224737,
        "Eccentricity": 0.0,
        "Inclination(deg)": 53.0,
        "Latitude(deg)": 0.9284609582053942,
        "Longitude(deg)": -124.35792305754705,
        "Mean Anomaly(deg)": 1.2536624071134421,
        "RAAN(deg)": 334.9989624598451,
        "Satellite Name": "Starlink Shell 1 1474",
        "Satellite Number": 1474,
        "Semi-Major Axis(m)": 6931778.249405717,
        "Time(s)": 20
    },
    {
        "Altitude(m)": 554057.3768848171,
        "Argument of Periapsis(deg)": 0.0010457354385337105,
        "Eccentricity": 0.0,
        "Inclination(deg)": 53.0,
        "Latitude(deg)": 1.4323610376523412,
        "Longitude(deg)": -124.02237657371447,
        "Mean Anomaly(deg)": 1.8804936106701375,
        "RAAN(deg)": 334.9984436897676,
        "Satellite Name": "Starlink Shell 1 1474",
        "Satellite Number": 1474,
        "Semi-Major Axis(m)": 6931778.249405717,
        "Time(s)": 30
    },
    {
        "Altitude(m)": 554001.3900800563,
        "Argument of Periapsis(deg)": 0.0013943139180449475,
        "Eccentricity": 0.0,
        "Inclination(deg)": 53.0,
        "Latitude(deg)": 1.93620555123483,
        "Longitude(deg)": -123.6866586953289,
        "Mean Anomaly(deg)": 2.5073248142268336,
        "RAAN(deg)": 334.9979249196901,
        "Satellite Name": "Starlink Shell 1 1474",
        "Satellite Number": 1474,
        "Semi-Major Axis(m)": 6931778.249405717,
        "Time(s)": 40
    },
    {
        "Altitude(m)": 553948.2218223941,
        "Argument of Periapsis(deg)": 0.0017428923975561844,
        "Eccentricity": 0.0,
        "Inclination(deg)": 53.0,
        "Latitude(deg)": 2.4399715280572196,
        "Longitude(deg)": -123.35071173863538,
        "Mean Anomaly(deg)": 3.13415601778358,
        "RAAN(deg)": 334.9974061496127,
        "Satellite Name": "Starlink Shell 1 1474",
        "Satellite Number": 1474,
        "Semi-Major Axis(m)": 6931778.249405717,
        "Time(s)": 50
    },
    {
        "Altitude(m)": 553897.8742168156,
        "Argument of Periapsis(deg)": 0.002091470877067421,
        "Eccentricity": 0.0,
        "Inclination(deg)": 53.0,
        "Latitude(deg)": 2.943635948448375,
        "Longitude(deg)": -123.01447791717236,
        "Mean Anomaly(deg)": 3.7609872213403266,
        "RAAN(deg)": 334.9968873795352,
        "Satellite Name": "Starlink Shell 1 1474",
        "Satellite Number": 1474,
        "Semi-Major Axis(m)": 6931778.249405717,
        "Time(s)": 60
    },
    {
        "Altitude(m)": 553850.3480151279,
        "Argument of Periapsis(deg)": 0.0024400493565786582,
        "Eccentricity": 0.0,
        "Inclination(deg)": 53.0,
        "Latitude(deg)": 3.4471757321680445,
        "Longitude(deg)": -122.67789881216198,
        "Mean Anomaly(deg)": 4.387818424896971,
        "RAAN(deg)": 334.9963686094577,
        "Satellite Name": "Starlink Shell 1 1474",
        "Satellite Number": 1474,
        "Semi-Major Axis(m)": 6931778.249405717,
        "Time(s)": 70
    },
    {
        "Altitude(m)": 553805.6426183599,
        "Argument of Periapsis(deg)": 0.002788627836089895,
        "Eccentricity": 0.0,
        "Inclination(deg)": 53.0,
        "Latitude(deg)": 3.9505677265583055,
        "Longitude(deg)": -122.3409163557323,
        "Mean Anomaly(deg)": 5.014649628453718,
        "RAAN(deg)": 334.99584983938024,
        "Satellite Name": "Starlink Shell 1 1474",
        "Satellite Number": 1474,
        "Semi-Major Axis(m)": 6931778.249405717,
        "Time(s)": 80
    },
    {
        "Altitude(m)": 553763.7560798161,
        "Argument of Periapsis(deg)": 0.0031372063156011316,
        "Eccentricity": 0.0,
        "Inclination(deg)": 53.0,
        "Latitude(deg)": 4.453788694624571,
        "Longitude(deg)": -122.00347230121818,
        "Mean Anomaly(deg)": 5.641480832010414,
        "RAAN(deg)": 334.9953310693028,
        "Satellite Name": "Starlink Shell 1 1474",
        "Satellite Number": 1474,
        "Semi-Major Axis(m)": 6931778.249405717,
        "Time(s)": 90
    },
    {
        "Altitude(m)": 553724.6851088499,
        "Argument of Periapsis(deg)": 0.0034857847951123688,
        "Eccentricity": 0.0,
        "Inclination(deg)": 53.0,
        "Latitude(deg)": 4.956815303037333,
        "Longitude(deg)": -121.6655076934054,
        "Mean Anomaly(deg)": 6.26831203556716,
        "RAAN(deg)": 334.9948122992253,
        "Satellite Name": "Starlink Shell 1 1474",
        "Satellite Number": 1474,
        "Semi-Major Axis(m)": 6931778.249405717,
        "Time(s)": 100
    },
    {
        "Altitude(m)": 553688.4250752389,
        "Argument of Periapsis(deg)": 0.003834363274623606,
        "Eccentricity": 0.0,
        "Inclination(deg)": 53.0,
        "Latitude(deg)": 5.4596241100443725,
        "Longitude(deg)": -121.32696385158785,
        "Mean Anomaly(deg)": 6.8951432391239065,
        "RAAN(deg)": 334.99429352914785,
        "Satellite Name": "Starlink Shell 1 1474",
        "Satellite Number": 1474,
        "Semi-Major Axis(m)": 6931778.249405717,
        "Time(s)": 110
    },
    {
        "Altitude(m)": 553654.9700142808,
        "Argument of Periapsis(deg)": 0.004182941754134842,
        "Eccentricity": 0.0,
        "Inclination(deg)": 53.0,
        "Latitude(deg)": 5.962191553278593,
        "Longitude(deg)": -120.98778183968281,
        "Mean Anomaly(deg)": 7.52197444268055,
        "RAAN(deg)": 334.99377475907033,
        "Satellite Name": "Starlink Shell 1 1474",
        "Satellite Number": 1474,
        "Semi-Major Axis(m)": 6931778.249405717,
        "Time(s)": 120
    },
    {
        "Altitude(m)": 553624.3126325549,
        "Argument of Periapsis(deg)": 0.004531520233646079,
        "Eccentricity": 0.0,
        "Inclination(deg)": 53.0,
        "Latitude(deg)": 6.464493937451952,
        "Longitude(deg)": -120.64790193627319,
        "Mean Anomaly(deg)": 8.148805646237298,
        "RAAN(deg)": 334.99325598899287,
        "Satellite Name": "Starlink Shell 1 1474",
        "Satellite Number": 1474,
        "Semi-Major Axis(m)": 6931778.249405717,
        "Time(s)": 130
    },
    {
        "Altitude(m)": 553596.4443143071,
        "Argument of Periapsis(deg)": 0.0048800987131573164,
        "Eccentricity": 0.0,
        "Inclination(deg)": 53.0,
        "Latitude(deg)": 6.966507421924968,
        "Longitude(deg)": -120.30726461744486,
        "Mean Anomaly(deg)": 8.775636849793994,
        "RAAN(deg)": 334.9927372189154,
        "Satellite Name": "Starlink Shell 1 1474",
        "Satellite Number": 1474,
        "Semi-Major Axis(m)": 6931778.249405717,
        "Time(s)": 140
    },
    {
        "Altitude(m)": 553571.3551285209,
        "Argument of Periapsis(deg)": 0.005228677192668553,
        "Eccentricity": 0.0,
        "Inclination(deg)": 53.0,
        "Latitude(deg)": 7.468208008137459,
        "Longitude(deg)": -119.96581002666738,
        "Mean Anomaly(deg)": 9.40246805335074,
        "RAAN(deg)": 334.99221844883795,
        "Satellite Name": "Starlink Shell 1 1474",
        "Satellite Number": 1474,
        "Semi-Major Axis(m)": 6931778.249405717,
        "Time(s)": 150
    },
    {
        "Altitude(m)": 553549.0338366401,
        "Argument of Periapsis(deg)": 0.00557725567217979,
        "Eccentricity": 0.0,
        "Inclination(deg)": 53.0,
        "Latitude(deg)": 7.969571526889961,
        "Longitude(deg)": -119.62347744458864,
        "Mean Anomaly(deg)": 10.029299256907436,
        "RAAN(deg)": 334.9916996787604,
        "Satellite Name": "Starlink Shell 1 1474",
        "Satellite Number": 1474,
        "Semi-Major Axis(m)": 6931778.249405717,
        "Time(s)": 160
    },
    {
        "Altitude(m)": 553529.4679009293,
        "Argument of Periapsis(deg)": 0.0059258341516910265,
        "Eccentricity": 0.0,
        "Inclination(deg)": 53.0,
        "Latitude(deg)": 8.470573625466029,
        "Longitude(deg)": -119.28020627161182,
        "Mean Anomaly(deg)": 10.65613046046413,
        "RAAN(deg)": 334.991180908683,
        "Satellite Name": "Starlink Shell 1 1474",
        "Satellite Number": 1474,
        "Semi-Major Axis(m)": 6931778.249405717,
        "Time(s)": 170
    },
    {
        "Altitude(m)": 553512.6434934955,
        "Argument of Periapsis(deg)": 0.006274412631202263,
        "Eccentricity": 0.0,
        "Inclination(deg)": 53.0,
        "Latitude(deg)": 8.971189754579672,
        "Longitude(deg)": -118.93593549750854,
        "Mean Anomaly(deg)": 11.282961664020878,
        "RAAN(deg)": 334.9906621386055,
        "Satellite Name": "Starlink Shell 1 1474",
        "Satellite Number": 1474,
        "Semi-Major Axis(m)": 6931778.249405717,
        "Time(s)": 180
    }
]